{"type": "FeatureCollection", "features": [ {"type": "Feature", "properties": {"norad_id": 66829, "name": "STARLINK-36084", "group": "last-30-days", "lat": -7.380690369864261, "lon": 172.41646802201237, "alt_km": 412.27922846615184, "timestamp": "2025-12-21T05:44:50.291858+00:00", "meta": {"OBJECT_NAME": "STARLINK-36084", "OBJECT_ID": "2025-280J", "EPOCH": "2025-12-20T22:00:01.999584", "MEAN_MOTION": 15.52493245, "ECCENTRICITY": 0.00029784, "INCLINATION": 69.9997, "RA_OF_ASC_NODE": 176.0045, "ARG_OF_PERICENTER": 274.5614, "MEAN_ANOMALY": 74.1595, "EPHEMERIS_TYPE": 0, "CLASSIFICATION_TYPE": "U", "NORAD_CAT_ID": 66829, "ELEMENT_SET_NO": 999, "REV_AT_EPOCH": 405, "BSTAR": 0.0012693465, "MEAN_MOTION_DOT": 0.00078625, "MEAN_MOTION_DDOT": 0}, "tle": {"line1": "1 66829U 25280J   25354.91668981  .00078625  00000+0  12693-2 0  9995", "line2": "2 66829  69.9997 176.0045 0002978 274.5614  74.1595 15.52493245  4050"}}, "geometry": {"type": "Point", "coordinates": [172.41646802201237, -7.380690369864261]}}, {"type": "Feature", "properties": {"norad_id": 66830, "name": "STARLINK-35881", "group": "last-30-days", "lat": -3.685604541288271, "lon": 173.7712890175933, "alt_km": 412.0381917549612, "timestamp": "2025-12-21T05:44:50.291881+00:00", "meta": {"OBJECT_NAME": "STARLINK-35881", "OBJECT_ID": "2025-280K", "EPOCH": "2025-12-20T22:00:01.999584", "MEAN_MOTION": 15.52472911, "ECCENTRICITY": 0.00030772, "INCLINATION": 69.9998, "RA_OF_ASC_NODE": 175.9994, "ARG_OF_PERICENTER": 274.1487, "MEAN_ANOMALY": 78.5288, "EPHEMERIS_TYPE": 0, "CLASSIFICATION_TYPE": "U", "NORAD_CAT_ID": 66830, "ELEMENT_SET_NO": 999, "REV_AT_EPOCH": 421, "BSTAR": 0.0012957201, "MEAN_MOTION_DOT": 0.0008022, "MEAN_MOTION_DDOT": 0}, "tle": {"line1": "1 66830U 25280K   25354.91668981  .00080220  00000+0  12957-2 0  9994", "line2": "2 66830  69.9998 175.9994 0003077 274.1487  78.5288 15.52472911  4211"}}, "geometry": {"type": "Point", "coordinates": [173.7712890175933, -3.685604541288271]}}, {"type": "Feature", "properties": {"norad_id": 66831, "name": "STARLINK-35788", "group": "last-30-days", "lat": -1.884675416390772, "lon": 174.42634192339509, "alt_km": 411.9104419430296, "timestamp": "2025-12-21T05:44:50.291895+00:00", "meta": {"OBJECT_NAME": "STARLINK-35788", "OBJECT_ID": "2025-280L", "EPOCH": "2025-12-20T22:00:01.999584", "MEAN_MOTION": 15.52467661, "ECCENTRICITY": 0.00031636, "INCLINATION": 69.9995, "RA_OF_ASC_NODE": 175.9968, "ARG_OF_PERICENTER": 272.9729, "MEAN_ANOMALY": 81.6211, "EPHEMERIS_TYPE": 0, "CLASSIFICATION_TYPE": "U", "NORAD_CAT_ID": 66831, "ELEMENT_SET_NO": 999, "REV_AT_EPOCH": 421, "BSTAR": 0.001519575, "MEAN_MOTION_DOT": 0.00094258, "MEAN_MOTION_DDOT": 0}, "tle": {"line1": "1 66831U 25280L   25354.91668981  .00094258  00000+0  15196-2 0  9999", "line2": "2 66831  69.9995 175.9968 0003163 272.9729  81.6211 15.52467661  4218"}}, "geometry": {"type": "Point", "coordinates": [174.42634192339509, -1.884675416390772]}}, {"type": "Feature", "properties": {"norad_id": 66832, "name": "STARLINK-35768", "group": "last-30-days", "lat": -0.08083393993109003, "lon": 175.08154992362773, "alt_km": 411.73121954354974, "timestamp": "2025-12-21T05:44:50.291905+00:00", "meta": {"OBJECT_NAME": "STARLINK-35768", "OBJECT_ID": "2025-280M", "EPOCH": "2025-12-20T22:00:01.999584", "MEAN_MOTION": 15.5246951, "ECCENTRICITY": 0.00032021, "INCLINATION": 69.9997, "RA_OF_ASC_NODE": 175.9947, "ARG_OF_PERICENTER": 273.7875, "MEAN_ANOMALY": 82.727, "EPHEMERIS_TYPE": 0, "CLASSIFICATION_TYPE": "U", "NORAD_CAT_ID": 66832, "ELEMENT_SET_NO": 999, "REV_AT_EPOCH": 421, "BSTAR": 0.0013623494, "MEAN_MOTION_DOT": 0.00084389, "MEAN_MOTION_DDOT": 0}, "tle": {"line1": "1 66832U 25280M   25354.91668981  .00084389  00000+0  13623-2 0  9997", "line2": "2 66832  69.9997 175.9947 0003202 273.7875  82.7270 15.52469510  4215"}}, "geometry": {"type": "Point", "coordinates": [175.08154992362773, -0.08083393993109003]}}, {"type": "Feature", "properties": {"norad_id": 66833, "name": "STARLINK-35858", "group": "last-30-days", "lat": 1.7174263766771682, "lon": 175.73483669127725, "alt_km": 411.7259575396338, "timestamp": "2025-12-21T05:44:50.291915+00:00", "meta": {"OBJECT_NAME": "STARLINK-35858", "OBJECT_ID": "2025-280N", "EPOCH": "2025-12-20T22:00:01.999584", "MEAN_MOTION": 15.52473319, "ECCENTRICITY": 0.00031987, "INCLINATION": 69.9996, "RA_OF_ASC_NODE": 175.9928, "ARG_OF_PERICENTER": 269.2051, "MEAN_ANOMALY": 89.2179, "EPHEMERIS_TYPE": 0, "CLASSIFICATION_TYPE": "U", "NORAD_CAT_ID": 66833, "ELEMENT_SET_NO": 999, "REV_AT_EPOCH": 421, "BSTAR": 0.0013844664, "MEAN_MOTION_DOT": 0.00085789, "MEAN_MOTION_DDOT": 0}, "tle": {"line1": "1 66833U 25280N   25354.91668981  .00085789  00000+0  13845-2 0  9999", "line2": "2 66833  69.9996 175.9928 0003198 269.2051  89.2179 15.52473319  4216"}}, "geometry": {"type": "Point", "coordinates": [175.73483669127725, 1.7174263766771682]}}, {"type": "Feature", "properties": {"norad_id": 66834, "name": "STARLINK-35840", "group": "last-30-days", "lat": 3.5132693378814706, "lon": 176.3877544096327, "alt_km": 411.5016977689056, "timestamp": "2025-12-21T05:44:50.291925+00:00", "meta": {"OBJECT_NAME": "STARLINK-35840", "OBJECT_ID": "2025-280P", "EPOCH": "2025-12-20T22:00:01.999584", "MEAN_MOTION": 15.5248113, "ECCENTRICITY": 0.00031117, "INCLINATION": 69.9998, "RA_OF_ASC_NODE": 175.9901, "ARG_OF_PERICENTER": 270.3497, "MEAN_ANOMALY": 89.9796, "EPHEMERIS_TYPE": 0, "CLASSIFICATION_TYPE": "U", "NORAD_CAT_ID": 66834, "ELEMENT_SET_NO": 999, "REV_AT_EPOCH": 421, "BSTAR": 0.0012374288, "MEAN_MOTION_DOT": 0.00076591, "MEAN_MOTION_DDOT": 0}, "tle": {"line1": "1 66834U 25280P   25354.91668981  .00076591  00000+0  12374-2 0  9997", "line2": "2 66834  69.9998 175.9901 0003111 270.3497  89.9796 15.52481130  4214"}}, "geometry": {"type": "Point", "coordinates": [176.3877544096327, 3.5132693378814706]}}, {"type": "Feature", "properties": {"norad_id": 66835, "name": "STARLINK-35890", "group": "last-30-days", "lat": 5.318227669026174, "lon": 177.04702627270512, "alt_km": 411.23299853784556, "timestamp": "2025-12-21T05:44:50.291935+00:00", "meta": {"OBJECT_NAME": "STARLINK-35890", "OBJECT_ID": "2025-280Q", "EPOCH": "2025-12-20T22:00:01.999584", "MEAN_MOTION": 15.52474583, "ECCENTRICITY": 0.00031186, "INCLINATION": 69.9999, "RA_OF_ASC_NODE": 175.9877, "ARG_OF_PERICENTER": 273.0924, "MEAN_ANOMALY": 89.1639, "EPHEMERIS_TYPE": 0, "CLASSIFICATION_TYPE": "U", "NORAD_CAT_ID": 66835, "ELEMENT_SET_NO": 999, "REV_AT_EPOCH": 421, "BSTAR": 0.0013023187, "MEAN_MOTION_DOT": 0.00080639, "MEAN_MOTION_DDOT": 0}, "tle": {"line1": "1 66835U 25280Q   25354.91668981  .00080639  00000+0  13023-2 0  9998", "line2": "2 66835  69.9999 175.9877 0003118 273.0924  89.1639 15.52474583  4212"}}, "geometry": {"type": "Point", "coordinates": [177.04702627270512, 5.318227669026174]}}, {"type": "Feature", "properties": {"norad_id": 66836, "name": "STARLINK-35838", "group": "last-30-days", "lat": 7.121556800604125, "lon": 177.7096417850189, "alt_km": 411.04147413699684, "timestamp": "2025-12-21T05:44:50.291944+00:00", "meta": {"OBJECT_NAME": "STARLINK-35838", "OBJECT_ID": "2025-280R", "EPOCH": "2025-12-20T22:00:01.999584", "MEAN_MOTION": 15.5246977, "ECCENTRICITY": 0.00030796, "INCLINATION": 70, "RA_OF_ASC_NODE": 175.9851, "ARG_OF_PERICENTER": 273.5362, "MEAN_ANOMALY": 90.6457, "EPHEMERIS_TYPE": 0, "CLASSIFICATION_TYPE": "U", "NORAD_CAT_ID": 66836, "ELEMENT_SET_NO": 999, "REV_AT_EPOCH": 421, "BSTAR": 0.0013195285, "MEAN_MOTION_DOT": 0.00081703, "MEAN_MOTION_DDOT": 0}, "tle": {"line1": "1 66836U 25280R   25354.91668981  .00081703  00000+0  13195-2 0  9992", "line2": "2 66836  70.0000 175.9851 0003079 273.5362  90.6457 15.52469770  4215"}}, "geometry": {"type": "Point", "coordinates": [177.7096417850189, 7.121556800604125]}}, {"type": "Feature", "properties": {"norad_id": 66837, "name": "STARLINK-35729", "group": "last-30-days", "lat": 8.924048390194573, "lon": 178.37764050948147, "alt_km": 410.8439018687386, "timestamp": "2025-12-21T05:44:50.291956+00:00", "meta": {"OBJECT_NAME": "STARLINK-35729", "OBJECT_ID": "2025-280S", "EPOCH": "2025-12-20T22:00:01.999584", "MEAN_MOTION": 15.52469875, "ECCENTRICITY": 0.00034743, "INCLINATION": 70.0001, "RA_OF_ASC_NODE": 175.9826, "ARG_OF_PERICENTER": 274.3429, "MEAN_ANOMALY": 91.7536, "EPHEMERIS_TYPE": 0, "CLASSIFICATION_TYPE": "U", "NORAD_CAT_ID": 66837, "ELEMENT_SET_NO": 999, "REV_AT_EPOCH": 421, "BSTAR": 0.001351264, "MEAN_MOTION_DOT": 0.00083697, "MEAN_MOTION_DDOT": 0}, "tle": {"line1": "1 66837U 25280S   25354.91668981  .00083697  00000+0  13513-2 0  9991", "line2": "2 66837  70.0001 175.9826 0003474 274.3429  91.7536 15.52469875  4217"}}, "geometry": {"type": "Point", "coordinates": [178.37764050948147, 8.924048390194573]}}, {"type": "Feature", "properties": {"norad_id": 66838, "name": "STARLINK-35886", "group": "last-30-days", "lat": 12.548973096982246, "lon": 179.7444577827511, "alt_km": 410.24641824621176, "timestamp": "2025-12-21T05:44:50.291967+00:00", "meta": {"OBJECT_NAME": "STARLINK-35886", "OBJECT_ID": "2025-280T", "EPOCH": "2025-12-20T22:00:01.999584", "MEAN_MOTION": 15.52451919, "ECCENTRICITY": 0.00028382, "INCLINATION": 70.0001, "RA_OF_ASC_NODE": 175.9778, "ARG_OF_PERICENTER": 280.272, "MEAN_ANOMALY": 89.7178, "EPHEMERIS_TYPE": 0, "CLASSIFICATION_TYPE": "U", "NORAD_CAT_ID": 66838, "ELEMENT_SET_NO": 999, "REV_AT_EPOCH": 421, "BSTAR": 0.0013336814, "MEAN_MOTION_DOT": 0.00082535, "MEAN_MOTION_DDOT": 0}, "tle": {"line1": "1 66838U 25280T   25354.91668981  .00082535  00000+0  13337-2 0  9996", "line2": "2 66838  70.0001 175.9778 0002838 280.2720  89.7178 15.52451919  4216"}}, "geometry": {"type": "Point", "coordinates": [179.7444577827511, 12.548973096982246]}}]}